{
  "type": "FeatureCollection",
  "features": [
    {
      "type": "Feature",
      "properties": {
        "norad_id": 66924,
        "name": "CZ-8A R/B",
        "group": "last-30-days",
        "lat": -12.034432480964783,
        "lon": 93.40490416468884,
        "alt_km": 849.5031257005348,
        "timestamp": "2025-12-15T15:53:18.663315+00:00",
        "meta_object_name": "CZ-8A R/B",
        "meta_object_id": "2025-285K",
        "meta_epoch": "2025-12-14T18:10:03.489312",
        "meta_mean_motion": 14.30502766,
        "meta_eccentricity": 0.01193243,
        "meta_inclination": 50.0068,
        "meta_ra_of_asc_node": 107.5676,
        "meta_arg_of_pericenter": 113.8487,
        "meta_mean_anomaly": 247.4987,
        "meta_ephemeris_type": 0,
        "meta_classification_type": "U",
        "meta_norad_cat_id": 66924,
        "meta_element_set_no": 999,
        "meta_rev_at_epoch": 121,
        "meta_bstar": 6.6868033e-05,
        "meta_mean_motion_dot": 2.2e-07,
        "meta_mean_motion_ddot": 0,
        "tle_line1": "1 66924U 25285K   25348.75698483  .00000022  00000+0  66868-4 0  9992",
        "tle_line2": "2 66924  50.0068 107.5676 0119324 113.8487 247.4987 14.30502766  1211"
      },
      "geometry": {
        "type": "Point",
        "coordinates": [
          93.40490416468884,
          -12.034432480964783
        ]
      }
    },
    {
      "type": "Feature",
      "properties": {
        "norad_id": 66925,
        "name": "STARLINK-35945",
        "group": "last-30-days",
        "lat": -25.918133181972955,
        "lon": 14.472983388820817,
        "alt_km": 304.7946012150396,
        "timestamp": "2025-12-15T15:53:18.663326+00:00",
        "meta_object_name": "STARLINK-35945",
        "meta_object_id": "2025-286A",
        "meta_epoch": "2025-12-14T20:00:06.000192",
        "meta_mean_motion": 15.92441844,
        "meta_eccentricity": 6.998e-05,
        "meta_inclination": 53.1569,
        "meta_ra_of_asc_node": 40.0621,
        "meta_arg_of_pericenter": 78.168,
        "meta_mean_anomaly": 178.7455,
        "meta_ephemeris_type": 0,
        "meta_classification_type": "U",
        "meta_norad_cat_id": 66925,
        "meta_element_set_no": 999,
        "meta_rev_at_epoch": 232,
        "meta_bstar": -0.0036422534,
        "meta_mean_motion_dot": -0.01264366,
        "meta_mean_motion_ddot": 0.00047051323,
        "tle_line1": "1 66925U 25286A   25348.83340278 -.01264366  47051-3 -36423-2 0  9998",
        "tle_line2": "2 66925  53.1569  40.0621 0000699  78.1680 178.7455 15.92441844  2322"
      },
      "geometry": {
        "type": "Point",
        "coordinates": [
          14.472983388820817,
          -25.918133181972955
        ]
      }
    },
    {
      "type": "Feature",
      "properties": {
        "norad_id": 66926,
        "name": "STARLINK-35942",
        "group": "last-30-days",
        "lat": -22.8568453227761,
        "lon": 17.408481134791455,
        "alt_km": 304.1591570809451,
        "timestamp": "2025-12-15T15:53:18.663335+00:00",
        "meta_object_name": "STARLINK-35942",
        "meta_object_id": "2025-286B",
        "meta_epoch": "2025-12-14T20:00:06.000192",
        "meta_mean_motion": 15.92584212,
        "meta_eccentricity": 6.575e-05,
        "meta_inclination": 53.1568,
        "meta_ra_of_asc_node": 40.0541,
        "meta_arg_of_pericenter": 71.3447,
        "meta_mean_anomaly": 189.2625,
        "meta_ephemeris_type": 0,
        "meta_classification_type": "U",
        "meta_norad_cat_id": 66926,
        "meta_element_set_no": 999,
        "meta_rev_at_epoch": 233,
        "meta_bstar": -0.0036724416,
        "meta_mean_motion_dot": -0.01284122,
        "meta_mean_motion_ddot": 0.00048465618,
        "tle_line1": "1 66926U 25286B   25348.83340278 -.01284122  48466-3 -36724-2 0  9996",
        "tle_line2": "2 66926  53.1568  40.0541 0000657  71.3447 189.2625 15.92584212  2337"
      },
      "geometry": {
        "type": "Point",
        "coordinates": [
          17.408481134791455,
          -22.8568453227761
        ]
      }
    },
    {
      "type": "Feature",
      "properties": {
        "norad_id": 66927,
        "name": "STARLINK-35943",
        "group": "last-30-days",
        "lat": -21.48713402527501,
        "lon": 18.6629945590335,
        "alt_km": 303.8776885908701,
        "timestamp": "2025-12-15T15:53:18.663344+00:00",
        "meta_object_name": "STARLINK-35943",
        "meta_object_id": "2025-286C",
        "meta_epoch": "2025-12-14T20:00:06.000192",
        "meta_mean_motion": 15.92641958,
        "meta_eccentricity": 7.602e-05,
        "meta_inclination": 53.1569,
        "meta_ra_of_asc_node": 40.051,
        "meta_arg_of_pericenter": 72.1063,
        "meta_mean_anomaly": 190.12,
        "meta_ephemeris_type": 0,
        "meta_classification_type": "U",
        "meta_norad_cat_id": 66927,
        "meta_element_set_no": 999,
        "meta_rev_at_epoch": 233,
        "meta_bstar": -0.0036501304,
        "meta_mean_motion_dot": -0.01280233,
        "meta_mean_motion_ddot": 0.0004822585,
        "tle_line1": "1 66927U 25286C   25348.83340278 -.01280233  48226-3 -36501-2 0  9993",
        "tle_line2": "2 66927  53.1569  40.0510 0000760  72.1063 190.1200 15.92641958  2334"
      },
      "geometry": {
        "type": "Point",
        "coordinates": [
          18.6629945590335,
          -21.48713402527501
        ]
      }
    },
    {
      "type": "Feature",
      "properties": {
        "norad_id": 66928,
        "name": "STARLINK-35944",
        "group": "last-30-days",
        "lat": -24.23979269891213,
        "lon": 16.10664713162214,
        "alt_km": 304.44775990387643,
        "timestamp": "2025-12-15T15:53:18.663353+00:00",
        "meta_object_name": "STARLINK-35944",
        "meta_object_id": "2025-286D",
        "meta_epoch": "2025-12-14T20:00:06.000192",
        "meta_mean_motion": 15.92518752,
        "meta_eccentricity": 7.839e-05,
        "meta_inclination": 53.1569,
        "meta_ra_of_asc_node": 40.0576,
        "meta_arg_of_pericenter": 71.6446,
        "meta_mean_anomaly": 187.3065,
        "meta_ephemeris_type": 0,
        "meta_classification_type": "U",
        "meta_norad_cat_id": 66928,
        "meta_element_set_no": 999,
        "meta_rev_at_epoch": 233,
        "meta_bstar": -0.0036569365,
        "meta_mean_motion_dot": -0.01274459,
        "meta_mean_motion_ddot": 0.00047773107,
        "tle_line1": "1 66928U 25286D   25348.83340278 -.01274459  47773-3 -36569-2 0  9997",
        "tle_line2": "2 66928  53.1569  40.0576 0000783  71.6446 187.3065 15.92518752  2333"
      },
      "geometry": {
        "type": "Point",
        "coordinates": [
          16.10664713162214,
          -24.23979269891213
        ]
      }
    },
    {
      "type": "Feature",
      "properties": {
        "norad_id": 66929,
        "name": "STARLINK-36169",
        "group": "last-30-days",
        "lat": -19.969359516752203,
        "lon": 20.015591759579287,
        "alt_km": 303.49924467747405,
        "timestamp": "2025-12-15T15:53:18.663363+00:00",
        "meta_object_name": "STARLINK-36169",
        "meta_object_id": "2025-286E",
        "meta_epoch": "2025-12-14T20:00:06.000192",
        "meta_mean_motion": 15.92704816,
        "meta_eccentricity": 8.264e-05,
        "meta_inclination": 53.1568,
        "meta_ra_of_asc_node": 40.0471,
        "meta_arg_of_pericenter": 68.6667,
        "meta_mean_anomaly": 195.3348,
        "meta_ephemeris_type": 0,
        "meta_classification_type": "U",
        "meta_norad_cat_id": 66929,
        "meta_element_set_no": 999,
        "meta_rev_at_epoch": 233,
        "meta_bstar": -0.0036163289,
        "meta_mean_motion_dot": -0.01272649,
        "meta_mean_motion_ddot": 0.0004773627,
        "tle_line1": "1 66929U 25286E   25348.83340278 -.01272649  47736-3 -36163-2 0  9996",
        "tle_line2": "2 66929  53.1568  40.0471 0000826  68.6667 195.3348 15.92704816  2337"
      },
      "geometry": {
        "type": "Point",
        "coordinates": [
          20.015591759579287,
          -19.969359516752203
        ]
      }
    },
    {
      "type": "Feature",
      "properties": {
        "norad_id": 66930,
        "name": "STARLINK-36206",
        "group": "last-30-days",
        "lat": -18.630589747565725,
        "lon": 21.17991622520821,
        "alt_km": 303.25376352275816,
        "timestamp": "2025-12-15T15:53:18.663372+00:00",
        "meta_object_name": "STARLINK-36206",
        "meta_object_id": "2025-286F",
        "meta_epoch": "2025-12-14T20:00:06.000192",
        "meta_mean_motion": 15.92771068,
        "meta_eccentricity": 7.545e-05,
        "meta_inclination": 53.1568,
        "meta_ra_of_asc_node": 40.0437,
        "meta_arg_of_pericenter": 69.6179,
        "meta_mean_anomaly": 195.9587,
        "meta_ephemeris_type": 0,
        "meta_classification_type": "U",
        "meta_norad_cat_id": 66930,
        "meta_element_set_no": 999,
        "meta_rev_at_epoch": 233,
        "meta_bstar": -0.0036510499,
        "meta_mean_motion_dot": -0.01289131,
        "meta_mean_motion_ddot": 0.00048899616,
        "tle_line1": "1 66930U 25286F   25348.83340278 -.01289131  48900-3 -36510-2 0  9992",
        "tle_line2": "2 66930  53.1568  40.0437 0000754  69.6179 195.9587 15.92771068  2334"
      },
      "geometry": {
        "type": "Point",
        "coordinates": [
          21.17991622520821,
          -18.630589747565725
        ]
      }
    }
  ]
}